NORAD_CAT_ID,OBJECT_NAME,OBJECT_TYPE,EPOCH,MEAN_MOTION,ECCENTRICITY,INCLINATION,RA_OF_ASC_NODE,ARG_OF_PERICENTER,MEAN_ANOMALY,BSTAR,MEAN_MOTION_DOT,MEAN_MOTION_DDOT,TLE_LINE0,TLE_LINE1,TLE_LINE2,SEMIMAJOR_AXIS,PERIOD,APOGEE,PERIGEE,DECAYED
53901.0,STARLINK-5024,PAYLOAD,2024-07-24 22:45:38,15.08843732,0.0001434,53.2178,104.8354,100.4679,259.6474,3.3133e-05,2.39e-06,0.0,0 STARLINK-5024,1 53901U 22119R   24206.94836339  .00000239  00000-0  33133-4 0  9993,2 53901  53.2178 104.8354 0001434 100.4679 259.6474 15.08843732102203,6917.869,95.437,540.726,538.742,0.0
53901.0,STARLINK-5024,PAYLOAD,2024-07-25 05:07:10,15.08873861,0.0001183,53.2173,103.6519,63.1007,297.0106,-0.00021416,-3.698e-05,0.0,0 STARLINK-5024,1 53901U 22119R   24207.21331025 -.00003698  00000-0 -21416-3 0  9990,2 53901  53.2173 103.6519 0001183  63.1007 297.0106 15.08873861101820,6917.777,95.435,540.46,538.824,0.0
53901.0,STARLINK-5024,PAYLOAD,2024-07-25 22:36:26,15.08833014,0.0001074,53.217,100.3826,88.7464,271.3651,0.00010109,1.321e-05,0.0,0 STARLINK-5024,1 53901U 22119R   24207.94197047  .00001321  00000-0  10109-3 0  9990,2 53901  53.2170 100.3826 0001074  88.7464 271.3651 15.08833014102356,6917.902,95.438,540.51,539.024,0.0
53901.0,STARLINK-5024,PAYLOAD,2024-07-26 01:47:12,15.08834083,0.0001099,53.2173,99.7877,93.0598,267.052,0.00010728,1.42e-05,0.0,0 STARLINK-5024,1 53901U 22119R   24208.07444992  .00001420  00000-0  10728-3 0  9996,2 53901  53.2173  99.7877 0001099  93.0598 267.0520 15.08834083101959,6917.898,95.438,540.524,539.003,0.0
53901.0,STARLINK-5024,PAYLOAD,2024-07-26 09:44:07,15.0884201,0.000122,53.2182,98.2979,92.8327,267.2805,0.00020296,2.944e-05,0.0,0 STARLINK-5024,1 53901U 22119R   24208.40564330  .00002944  00000-0  20296-3 0  9995,2 53901  53.2182  98.2979 0001220  92.8327 267.2805 15.08842010102003,6917.874,95.437,540.583,538.895,0.0
53901.0,STARLINK-5024,PAYLOAD,2024-07-27 22:18:01,15.08825556,0.0001513,53.2176,91.4593,84.0774,276.039,-0.00013817,-2.485e-05,0.0,0 STARLINK-5024,1 53901U 22119R   24209.92917995 -.00002485  00000-0 -13817-3 0  9995,2 53901  53.2176  91.4593 0001513  84.0774 276.0390 15.08825556102651,6917.925,95.438,540.836,538.743,0.0
53901.0,STARLINK-5024,PAYLOAD,2024-07-27 23:53:24,15.08824801,0.0001344,53.2169,91.1614,85.9053,274.2093,-7.9918e-05,-1.559e-05,0.0,0 STARLINK-5024,1 53901U 22119R   24209.99541829 -.00001559  00000-0 -79918-4 0  9997,2 53901  53.2169  91.1614 0001344  85.9053 274.2093 15.08824801102243,6917.927,95.439,540.722,538.862,0.0
53901.0,STARLINK-5024,PAYLOAD,2024-07-28 09:25:42,15.08835371,0.0001524,53.2184,89.3772,85.3897,274.727,1.7285e-05,-1.3e-07,0.0,0 STARLINK-5024,1 53901U 22119R   24210.39285179 -.00000013  00000-0  17285-4 0  9998,2 53901  53.2184  89.3772 0001524  85.3897 274.7270 15.08835371102307,6917.895,95.438,540.814,538.705,0.0
53901.0,STARLINK-5024,PAYLOAD,2024-07-28 20:33:16,15.08999687,0.0002098,53.2169,87.2946,49.5856,310.5319,-0.0027243,-0.00043574,0.0,0 STARLINK-5024,1 53901U 22119R   24210.85644373 -.00043574  00000-0 -27243-2 0  9997,2 53901  53.2169  87.2946 0002098  49.5856 310.5319 15.08999687102375,6917.392,95.427,540.709,537.806,0.0
53901.0,STARLINK-5024,PAYLOAD,2024-07-28 22:08:47,15.08828852,0.000149,53.216,86.9978,85.997,274.1192,0.00046207,7.071e-05,0.0,0 STARLINK-5024,1 53901U 22119R   24210.92277274  .00007071  00000-0  46207-3 0  9999,2 53901  53.2160  86.9978 0001490  85.9970 274.1192 15.08828852102800,6917.914,95.438,540.81,538.749,0.0
53901.0,STARLINK-5024,PAYLOAD,2024-07-29 02:54:56,15.08842561,0.0001387,53.2159,86.1055,88.8918,271.2233,0.00068752,0.00010672,0.0,0 STARLINK-5024,1 53901U 22119R   24211.12148935  .00010672  00000-0  68752-3 0  9993,2 53901  53.2159  86.1055 0001387  88.8918 271.2233 15.08842561102419,6917.873,95.437,540.697,538.778,0.0
53901.0,STARLINK-5024,PAYLOAD,2024-07-29 09:16:29,15.08848234,0.0001333,53.2154,84.9158,88.2819,271.8326,0.00073747,0.00011471,0.0,0 STARLINK-5024,1 53901U 22119R   24211.38645057  .00011471  00000-0  73747-3 0  9996,2 53901  53.2154  84.9158 0001333  88.2819 271.8326 15.08848234102871,6917.855,95.437,540.642,538.798,0.0
53901.0,STARLINK-5024,PAYLOAD,2024-07-29 20:24:11,15.08843694,0.0001689,53.2155,82.8344,120.5823,239.5336,0.00027742,4.13e-05,0.0,0 STARLINK-5024,1 53901U 22119R   24211.85013100  .00004130  00000-0  27742-3 0  9994,2 53901  53.2155  82.8344 0001689 120.5823 239.5336 15.08843694102524,6917.869,95.437,540.903,538.566,0.0
53901.0,STARLINK-5024,PAYLOAD,2024-07-29 21:59:34,15.0884401,0.0001593,53.2161,82.5356,117.8137,242.3017,0.00026733,3.97e-05,0.0,0 STARLINK-5024,1 53901U 22119R   24211.91637137  .00003970  00000-0  26733-3 0  9993,2 53901  53.2161  82.5356 0001593 117.8137 242.3017 15.08844010102950,6917.868,95.437,540.835,538.631,0.0
53901.0,STARLINK-5024,PAYLOAD,2024-07-30 21:50:21,15.08853738,0.0001537,53.2183,78.0788,94.3762,265.7406,0.00056023,8.643e-05,0.0,0 STARLINK-5024,1 53901U 22119R   24212.90996961  .00008643  00000-0  56023-3 0  9993,2 53901  53.2183  78.0788 0001537  94.3762 265.7406 15.08853738103100,6917.838,95.437,540.767,538.64,0.0
53901.0,STARLINK-5024,PAYLOAD,2024-07-31 21:41:08,15.08839538,0.0001214,53.2176,73.6178,105.3423,254.7703,4.6662e-05,4.55e-06,0.0,0 STARLINK-5024,1 53901U 22119R   24213.90357066  .00000455  00000-0  46662-4 0  9993,2 53901  53.2176  73.6178 0001214 105.3423 254.7703 15.08839538102834,6917.882,95.438,540.587,538.907,0.0
53901.0,STARLINK-5024,PAYLOAD,2024-08-01 15:10:23,15.0883928,0.000156,53.2188,70.3498,113.0887,247.027,0.00016148,2.283e-05,0.0,0 STARLINK-5024,1 53901U 22119R   24214.63221166  .00002283  00000-0  16148-3 0  9991,2 53901  53.2188  70.3498 0001560 113.0887 247.0270 15.08839280103367,6917.883,95.438,540.827,538.668,0.0
53901.0,STARLINK-5024,PAYLOAD,2024-08-01 21:31:55,15.08842299,0.0001528,53.2183,69.1602,112.7201,247.3953,0.00016761,2.381e-05,0.0,0 STARLINK-5024,1 53901U 22119R   24214.89717109  .00002381  00000-0  16761-3 0  9996,2 53901  53.2183  69.1602 0001528 112.7201 247.3953 15.08842299103405,6917.873,95.437,540.795,538.681,0.0
53901.0,STARLINK-5024,PAYLOAD,2024-08-02 07:04:13,15.08857943,0.0001216,53.2171,67.3705,97.6733,262.4397,0.00053123,8.181e-05,0.0,0 STARLINK-5024,1 53901U 22119R   24215.29460462  .00008181  00000-0  53123-3 0  9995,2 53901  53.2171  67.3705 0001216  97.6733 262.4397 15.08857943103043,6917.826,95.436,540.532,538.849,0.0
53901.0,STARLINK-5024,PAYLOAD,2024-08-02 19:47:19,15.08827376,0.0001356,53.2169,64.9951,103.9403,256.174,-0.00013086,-2.369e-05,0.0,0 STARLINK-5024,1 53901U 22119R   24215.82453675 -.00002369  00000-0 -13086-3 0  9990,2 53901  53.2169  64.9951 0001356 103.9403 256.1740 15.08827376103124,6917.919,95.438,540.722,538.846,0.0
53901.0,STARLINK-5024,PAYLOAD,2024-08-02 21:22:43,15.08831798,0.0001363,53.2165,64.6971,97.6295,262.4852,5.817e-05,6.38e-06,0.0,0 STARLINK-5024,1 53901U 22119R   24215.89077691  .00000638  00000-0  58170-4 0  9996,2 53901  53.2165  64.6971 0001363  97.6295 262.4852 15.08831798103559,6917.905,95.438,540.713,538.828,0.0
53901.0,STARLINK-5024,PAYLOAD,2024-08-03 06:55:02,15.08842872,0.0001313,53.2157,62.9111,81.8241,278.29,0.0014906,0.00023516,0.0,0 STARLINK-5024,1 53901U 22119R   24216.28821970  .00023516  00000-0  14906-2 0  9994,2 53901  53.2157  62.9111 0001313  81.8241 278.2900 15.08842872103192,6917.872,95.437,540.645,538.828,0.0
53901.0,STARLINK-5024,PAYLOAD,2024-08-03 21:13:30,15.08855412,0.0001373,53.2158,60.2352,80.081,280.0337,0.0011207,0.000176,0.0,0 STARLINK-5024,1 53901U 22119R   24216.88437895  .00017600  00000-0  11207-2 0  9997,2 53901  53.2158  60.2352 0001373  80.0810 280.0337 15.08855412103289,6917.833,95.437,540.648,538.748,0.0
53901.0,STARLINK-5024,PAYLOAD,2024-08-04 13:07:21,15.08850592,0.0001608,53.2157,57.2612,88.793,271.3247,0.00035222,5.324e-05,0.0,0 STARLINK-5024,1 53901U 22119R   24217.54677509  .00005324  00000-0  35222-3 0  9993,2 53901  53.2157  57.2612 0001608  88.7930 271.3247 15.08850592103380,6917.848,95.437,540.825,538.601,0.0
53901.0,STARLINK-5024,PAYLOAD,2024-08-04 21:04:16,15.08865435,0.0001083,53.215,55.7746,93.4047,266.7069,0.002733,0.00043507,0.0,0 STARLINK-5024,1 53901U 22119R   24217.87797304  .00043507  00000-0  27330-2 0  9990,2 53901  53.2150  55.7746 0001083  93.4047 266.7069 15.08865435103857,6917.803,95.436,540.417,538.918,0.0
53901.0,STARLINK-5024,PAYLOAD,2024-08-05 19:19:41,15.08825962,0.0001275,53.2151,51.6111,86.8124,273.3014,0.00091058,0.00014228,0.0,0 STARLINK-5024,1 53901U 22119R   24218.80533826  .00014228  00000-0  91058-3 0  9998,2 53901  53.2151  51.6111 0001275  86.8124 273.3014 15.08825962103578,6917.923,95.438,540.67,538.906,0.0
53901.0,STARLINK-5024,PAYLOAD,2024-08-06 12:48:56,15.08838202,0.0001806,53.2182,48.3383,99.0127,261.1069,0.00062047,9.6e-05,0.0,0 STARLINK-5024,1 53901U 22119R   24219.53398188  .00009600  00000-0  62047-3 0  9993,2 53901  53.2182  48.3383 0001806  99.0127 261.1069 15.08838202104101,6917.886,95.438,541.0,538.502,0.0
53901.0,STARLINK-5024,PAYLOAD,2024-08-06 19:10:28,15.08841582,0.0001658,53.2174,47.1495,97.1011,263.017,0.00043937,6.712e-05,0.0,0 STARLINK-5024,1 53901U 22119R   24219.79894115  .00006712  00000-0  43937-3 0  9990,2 53901  53.2174  47.1495 0001658  97.1011 263.0170 15.08841582103725,6917.876,95.437,540.888,538.594,0.0
53901.0,STARLINK-5024,PAYLOAD,2024-08-07 12:39:42,15.08863031,0.0001597,53.2177,43.8788,95.5176,264.5999,0.00074589,0.0001161,0.0,0 STARLINK-5024,1 53901U 22119R   24220.52757325  .00011610  00000-0  74589-3 0  9994,2 53901  53.2177  43.8788 0001597  95.5176 264.5999 15.08863031104259,6917.81,95.436,540.78,538.57,0.0
53901.0,STARLINK-5024,PAYLOAD,2024-08-07 19:01:14,15.08868521,0.0001549,53.2176,42.6895,95.1597,264.9572,0.00072665,0.00011305,0.0,0 STARLINK-5024,1 53901U 22119R   24220.79252852  .00011305  00000-0  72665-3 0  9992,2 53901  53.2176  42.6895 0001549  95.1597 264.9572 15.08868521103871,6917.793,95.436,540.73,538.587,0.0
